{"type": "FeatureCollection", "features": [ {"type": "Feature", "properties": {"norad_id": 30282, "name": "FENGYUN 1C DEB", "group": "fengyun-1c-debris", "lat": 68.10542946005809, "lon": -175.75678193511706, "alt_km": 826.722497556797, "timestamp": "2025-12-04T17:48:40.440973+00:00", "meta": {"OBJECT_NAME": "FENGYUN 1C DEB", "OBJECT_ID": "1999-025YT", "EPOCH": "2025-12-03T22:53:34.843200", "MEAN_MOTION": 14.12951472, "ECCENTRICITY": 0.02108375, "INCLINATION": 98.5015, "RA_OF_ASC_NODE": 341.6442, "ARG_OF_PERICENTER": 27.2612, "MEAN_ANOMALY": 33.2253, "EPHEMERIS_TYPE": 0, "CLASSIFICATION_TYPE": "U", "NORAD_CAT_ID": 30282, "ELEMENT_SET_NO": 999, "REV_AT_EPOCH": 97227, "BSTAR": 0.00056922787, "MEAN_MOTION_DOT": 1.268e-05, "MEAN_MOTION_DDOT": 0}, "tle": {"line1": "1 30282U 99025YT  25337.95387550  .00001268  00000+0  56923-3 0  9996", "line2": "2 30282  98.5015 341.6442 0210837  27.2612  33.2253 14.12951472972271"}}, "geometry": {"type": "Point", "coordinates": [-175.75678193511706, 68.10542946005809]}}, {"type": "Feature", "properties": {"norad_id": 30283, "name": "FENGYUN 1C DEB", "group": "fengyun-1c-debris", "lat": -8.094170083057495, "lon": -26.084193002620793, "alt_km": 850.3960868188842, "timestamp": "2025-12-04T17:48:40.440984+00:00", "meta": {"OBJECT_NAME": "FENGYUN 1C DEB", "OBJECT_ID": "1999-025YU", "EPOCH": "2025-12-04T06:10:30.059040", "MEAN_MOTION": 14.01972044, "ECCENTRICITY": 0.0185267, "INCLINATION": 98.8674, "RA_OF_ASC_NODE": 332.1719, "ARG_OF_PERICENTER": 66.8008, "MEAN_ANOMALY": 1.4539, "EPHEMERIS_TYPE": 0, "CLASSIFICATION_TYPE": "U", "NORAD_CAT_ID": 30283, "ELEMENT_SET_NO": 999, "REV_AT_EPOCH": 96572, "BSTAR": 0.00010063328, "MEAN_MOTION_DOT": 1.37e-06, "MEAN_MOTION_DDOT": 0}, "tle": {"line1": "1 30283U 99025YU  25338.25729235  .00000137  00000+0  10063-3 0  9990", "line2": "2 30283  98.8674 332.1719 0185267  66.8008   1.4539 14.01972044965726"}}, "geometry": {"type": "Point", "coordinates": [-26.084193002620793, -8.094170083057495]}}, {"type": "Feature", "properties": {"norad_id": 30284, "name": "FENGYUN 1C DEB", "group": "fengyun-1c-debris", "lat": 13.983205108693662, "lon": -130.62326383567444, "alt_km": 774.4125789353848, "timestamp": "2025-12-04T17:48:40.440994+00:00", "meta": {"OBJECT_NAME": "FENGYUN 1C DEB", "OBJECT_ID": "1999-025YV", "EPOCH": "2025-12-03T04:19:25.627872", "MEAN_MOTION": 14.28646835, "ECCENTRICITY": 0.00382629, "INCLINATION": 98.7221, "RA_OF_ASC_NODE": 45.6247, "ARG_OF_PERICENTER": 136.064, "MEAN_ANOMALY": 280.4954, "EPHEMERIS_TYPE": 0, "CLASSIFICATION_TYPE": "U", "NORAD_CAT_ID": 30284, "ELEMENT_SET_NO": 999, "REV_AT_EPOCH": 97379, "BSTAR": 0.002047299, "MEAN_MOTION_DOT": 5.143e-05, "MEAN_MOTION_DDOT": 0}, "tle": {"line1": "1 30284U 99025YV  25337.18015773  .00005143  00000+0  20473-2 0  9994", "line2": "2 30284  98.7221  45.6247 0038262 136.0640 280.4954 14.28646835973791"}}, "geometry": {"type": "Point", "coordinates": [-130.62326383567444, 13.983205108693662]}}, {"type": "Feature", "properties": {"norad_id": 30286, "name": "FENGYUN 1C DEB", "group": "fengyun-1c-debris", "lat": -24.04292333506434, "lon": -12.745363334094192, "alt_km": 902.0679106490607, "timestamp": "2025-12-04T17:48:40.441004+00:00", "meta": {"OBJECT_NAME": "FENGYUN 1C DEB", "OBJECT_ID": "1999-025YX", "EPOCH": "2025-12-04T06:06:08.869248", "MEAN_MOTION": 14.12719085, "ECCENTRICITY": 0.00643733, "INCLINATION": 98.6901, "RA_OF_ASC_NODE": 342.8689, "ARG_OF_PERICENTER": 156.6998, "MEAN_ANOMALY": 219.2853, "EPHEMERIS_TYPE": 0, "CLASSIFICATION_TYPE": "U", "NORAD_CAT_ID": 30286, "ELEMENT_SET_NO": 999, "REV_AT_EPOCH": 97339, "BSTAR": 0.00016225823, "MEAN_MOTION_DOT": 2.65e-06, "MEAN_MOTION_DDOT": 0}, "tle": {"line1": "1 30286U 99025YX  25338.25426932  .00000265  00000+0  16226-3 0  9990", "line2": "2 30286  98.6901 342.8689 0064373 156.6998 219.2853 14.12719085973390"}}, "geometry": {"type": "Point", "coordinates": [-12.745363334094192, -24.04292333506434]}}, {"type": "Feature", "properties": {"norad_id": 30287, "name": "FENGYUN 1C DEB", "group": "fengyun-1c-debris", "lat": 18.591201440036837, "lon": 10.838208408062206, "alt_km": 708.5202978361476, "timestamp": "2025-12-04T17:48:40.441014+00:00", "meta": {"OBJECT_NAME": "FENGYUN 1C DEB", "OBJECT_ID": "1999-025YY", "EPOCH": "2025-12-04T02:10:53.092992", "MEAN_MOTION": 13.68551111, "ECCENTRICITY": 0.04138186, "INCLINATION": 98.6387, "RA_OF_ASC_NODE": 13.184, "ARG_OF_PERICENTER": 35.3081, "MEAN_ANOMALY": 17.9733, "EPHEMERIS_TYPE": 0, "CLASSIFICATION_TYPE": "U", "NORAD_CAT_ID": 30287, "ELEMENT_SET_NO": 999, "REV_AT_EPOCH": 93740, "BSTAR": 0.0015990957, "MEAN_MOTION_DOT": 2.462e-05, "MEAN_MOTION_DDOT": 0}, "tle": {"line1": "1 30287U 99025YY  25338.09089228  .00002462  00000+0  15991-2 0  9994", "line2": "2 30287  98.6387  13.1840 0413818  35.3081  17.9733 13.68551111937400"}}, "geometry": {"type": "Point", "coordinates": [10.838208408062206, 18.591201440036837]}}, {"type": "Feature", "properties": {"norad_id": 30288, "name": "FENGYUN 1C DEB", "group": "fengyun-1c-debris", "lat": -76.41340730379738, "lon": -163.52073815579806, "alt_km": 789.9073109232259, "timestamp": "2025-12-04T17:48:40.441023+00:00", "meta": {"OBJECT_NAME": "FENGYUN 1C DEB", "OBJECT_ID": "1999-025YZ", "EPOCH": "2025-12-04T03:28:16.018176", "MEAN_MOTION": 14.32454133, "ECCENTRICITY": 0.00201691, "INCLINATION": 99.3963, "RA_OF_ASC_NODE": 59.0809, "ARG_OF_PERICENTER": 348.4881, "MEAN_ANOMALY": 72.3409, "EPHEMERIS_TYPE": 0, "CLASSIFICATION_TYPE": "U", "NORAD_CAT_ID": 30288, "ELEMENT_SET_NO": 999, "REV_AT_EPOCH": 97446, "BSTAR": 0.0036707116, "MEAN_MOTION_DOT": 9.924e-05, "MEAN_MOTION_DDOT": 0}, "tle": {"line1": "1 30288U 99025YZ  25338.14462984  .00009924  00000+0  36707-2 0  9993", "line2": "2 30288  99.3963  59.0809 0020169 348.4881  72.3409 14.32454133974462"}}, "geometry": {"type": "Point", "coordinates": [-163.52073815579806, -76.41340730379738]}}, {"type": "Feature", "properties": {"norad_id": 30289, "name": "FENGYUN 1C DEB", "group": "fengyun-1c-debris", "lat": -43.95655988975848, "lon": -113.63272719961716, "alt_km": 829.7398577013273, "timestamp": "2025-12-04T17:48:40.441034+00:00", "meta": {"OBJECT_NAME": "FENGYUN 1C DEB", "OBJECT_ID": "1999-025ZA", "EPOCH": "2025-12-04T00:44:25.605888", "MEAN_MOTION": 14.25698175, "ECCENTRICITY": 0.0037031, "INCLINATION": 98.928, "RA_OF_ASC_NODE": 74.3613, "ARG_OF_PERICENTER": 356.4835, "MEAN_ANOMALY": 179.7612, "EPHEMERIS_TYPE": 0, "CLASSIFICATION_TYPE": "U", "NORAD_CAT_ID": 30289, "ELEMENT_SET_NO": 999, "REV_AT_EPOCH": 96957, "BSTAR": 0.0038415858, "MEAN_MOTION_DOT": 9.144e-05, "MEAN_MOTION_DDOT": 0}, "tle": {"line1": "1 30289U 99025ZA  25338.03085192  .00009144  00000+0  38416-2 0  9997", "line2": "2 30289  98.9280  74.3613 0037031 356.4835 179.7612 14.25698175969579"}}, "geometry": {"type": "Point", "coordinates": [-113.63272719961716, -43.95655988975848]}}, {"type": "Feature", "properties": {"norad_id": 30290, "name": "FENGYUN 1C DEB", "group": "fengyun-1c-debris", "lat": -1.3159878631443307, "lon": 76.44159708745839, "alt_km": 648.8950273315386, "timestamp": "2025-12-04T17:48:40.441044+00:00", "meta": {"OBJECT_NAME": "FENGYUN 1C DEB", "OBJECT_ID": "1999-025ZB", "EPOCH": "2025-12-04T05:07:20.569728", "MEAN_MOTION": 14.74002082, "ECCENTRICITY": 0.00166572, "INCLINATION": 102.624, "RA_OF_ASC_NODE": 75.3273, "ARG_OF_PERICENTER": 79.8452, "MEAN_ANOMALY": 354.9433, "EPHEMERIS_TYPE": 0, "CLASSIFICATION_TYPE": "U", "NORAD_CAT_ID": 30290, "ELEMENT_SET_NO": 999, "REV_AT_EPOCH": 97753, "BSTAR": 0.01351858, "MEAN_MOTION_DOT": 0.00090214, "MEAN_MOTION_DDOT": 0}, "tle": {"line1": "1 30290U 99025ZB  25338.21343252  .00090214  00000+0  13519-1 0  9997", "line2": "2 30290 102.6240  75.3273 0016657  79.8452 354.9433 14.74002082977538"}}, "geometry": {"type": "Point", "coordinates": [76.44159708745839, -1.3159878631443307]}}, {"type": "Feature", "properties": {"norad_id": 30291, "name": "FENGYUN 1C DEB", "group": "fengyun-1c-debris", "lat": -68.40358991509056, "lon": -112.6853824378352, "alt_km": 747.9006054043903, "timestamp": "2025-12-04T17:48:40.441054+00:00", "meta": {"OBJECT_NAME": "FENGYUN 1C DEB", "OBJECT_ID": "1999-025ZC", "EPOCH": "2025-12-03T04:51:57.002976", "MEAN_MOTION": 14.54818439, "ECCENTRICITY": 0.01126156, "INCLINATION": 97.2337, "RA_OF_ASC_NODE": 227.2671, "ARG_OF_PERICENTER": 48.6527, "MEAN_ANOMALY": 105.3874, "EPHEMERIS_TYPE": 0, "CLASSIFICATION_TYPE": "U", "NORAD_CAT_ID": 30291, "ELEMENT_SET_NO": 999, "REV_AT_EPOCH": 97569, "BSTAR": 0.0037436703, "MEAN_MOTION_DOT": 0.00017481, "MEAN_MOTION_DDOT": 0}, "tle": {"line1": "1 30291U 99025ZC  25337.20274309  .00017481  00000+0  37437-2 0  9993", "line2": "2 30291  97.2337 227.2671 0112615  48.6527 105.3874 14.54818439975694"}}, "geometry": {"type": "Point", "coordinates": [-112.6853824378352, -68.40358991509056]}}, {"type": "Feature", "properties": {"norad_id": 30293, "name": "FENGYUN 1C DEB", "group": "fengyun-1c-debris", "lat": 2.7877282740836202, "lon": 168.44437173061308, "alt_km": 770.5090080797909, "timestamp": "2025-12-04T17:48:40.441065+00:00", "meta": {"OBJECT_NAME": "FENGYUN 1C DEB", "OBJECT_ID": "1999-025ZE", "EPOCH": "2025-12-04T06:59:26.636928", "MEAN_MOTION": 14.48861202, "ECCENTRICITY": 0.00765701, "INCLINATION": 99.2545, "RA_OF_ASC_NODE": 168.4054, "ARG_OF_PERICENTER": 139.7502, "MEAN_ANOMALY": 33.5327, "EPHEMERIS_TYPE": 0, "CLASSIFICATION_TYPE": "U", "NORAD_CAT_ID": 30293, "ELEMENT_SET_NO": 999, "REV_AT_EPOCH": 98854, "BSTAR": 0.001930889, "MEAN_MOTION_DOT": 7.53e-05, "MEAN_MOTION_DDOT": 0}, "tle": {"line1": "1 30293U 99025ZE  25338.29128052  .00007530  00000+0  19309-2 0  9990", "line2": "2 30293  99.2545 168.4054 0076570 139.7502  33.5327 14.48861202988546"}}, "geometry": {"type": "Point", "coordinates": [168.44437173061308, 2.7877282740836202]}}]}